NORAD_CAT_ID,OBJECT_NAME,OBJECT_TYPE,EPOCH,MEAN_MOTION,ECCENTRICITY,INCLINATION,RA_OF_ASC_NODE,ARG_OF_PERICENTER,MEAN_ANOMALY,BSTAR,MEAN_MOTION_DOT,MEAN_MOTION_DDOT,TLE_LINE0,TLE_LINE1,TLE_LINE2,SEMIMAJOR_AXIS,PERIOD,APOGEE,PERIGEE,DECAYED
52599.0,STARLINK-4024,PAYLOAD,2022-10-03 08:14:00,15.08844327,0.0001879,53.2182,145.6035,45.0204,315.0941,0.00010744,1.422e-05,0.0,0 STARLINK-4024,1 52599U 22052B   22276.34306367  .00001422  00000-0  10744-3 0  9990,2 52599  53.2182 145.6035 0001879  45.0204 315.0941 15.08844327 22444,6917.8669999999975,95.437,541.0319999999998,538.432,0.0
52599.0,STARLINK-4024,PAYLOAD,2022-10-03 20:57:05,15.08840351,0.0001895,53.2179,143.2257,38.2436,321.869,0.00013029,1.786e-05,0.0,0 STARLINK-4024,1 52599U 22052B   22276.87298490  .00001786  00000-0  13029-3 0  9997,2 52599  53.2179 143.2257 0001895  38.2436 321.8690 15.08840351 22527,6917.879,95.438,541.055,538.433,0.0
52599.0,STARLINK-4024,PAYLOAD,2022-10-04 01:43:15,15.08837034,0.0001514,53.2181,142.3329,44.9679,315.1436,7.3612e-05,8.84e-06,0.0,0 STARLINK-4024,1 52599U 22052B   22277.07170663  .00000884  00000-0  73612-4 0  9994,2 52599  53.2181 142.3329 0001514  44.9679 315.1436 15.08837034 22552,6917.889,95.438,540.802,538.707,0.0
52599.0,STARLINK-4024,PAYLOAD,2022-10-04 19:12:30,15.08835947,0.0001664,53.2181,139.0624,47.8441,312.2693,3.684e-05,2.98e-06,0.0,0 STARLINK-4024,1 52599U 22052B   22277.80035246  .00000298  00000-0  36840-4 0  9993,2 52599  53.2181 139.0624 0001664  47.8441 312.2693 15.08835947 22664,6917.893,95.438,540.909,538.607,0.0
52599.0,STARLINK-4024,PAYLOAD,2022-10-04 23:58:39,15.08837281,0.0001713,53.2175,138.1691,45.2661,314.847,-1.8666e-05,-5.85e-06,0.0,0 STARLINK-4024,1 52599U 22052B   22277.99907372 -.00000585  00000-0 -18666-4 0  9998,2 52599  53.2175 138.1691 0001713  45.2661 314.8470 15.08837281 22262,6917.889,95.438,540.939,538.569,0.0
52599.0,STARLINK-4024,PAYLOAD,2022-10-05 07:55:36,15.08834447,0.0001712,53.2173,136.6832,39.5009,320.6107,-4.3602e-05,-9.82e-06,0.0,0 STARLINK-4024,1 52599U 22052B   22278.33027802 -.00000982  00000-0 -43602-4 0  9997,2 52599  53.2173 136.6832 0001712  39.5009 320.6107 15.08834447 22747,6917.897,95.438,540.947,538.578,0.0
52599.0,STARLINK-4024,PAYLOAD,2022-10-05 20:38:41,15.08836078,0.0001745,53.2171,134.3038,41.6035,318.5089,-8.212e-05,-1.595e-05,0.0,0 STARLINK-4024,1 52599U 22052B   22278.86019980 -.00001595  00000-0 -82120-4 0  9992,2 52599  53.2171 134.3038 0001745  41.6035 318.5089 15.08836078 22823,6917.892,95.438,540.965,538.55,0.0
52599.0,STARLINK-4024,PAYLOAD,2022-10-06 07:46:22,15.08841454,0.0001869,53.2176,132.2222,43.1553,316.9585,-3.4557e-05,-8.38e-06,0.0,0 STARLINK-4024,1 52599U 22052B   22279.32387635 -.00000838  00000-0 -34557-4 0  9999,2 52599  53.2176 132.2222 0001869  43.1553 316.9585 15.08841454 22893,6917.876,95.437,541.034,538.448,0.0
52599.0,STARLINK-4024,PAYLOAD,2022-10-06 20:29:27,15.08833051,0.0001898,53.2171,129.844,42.01300000000001,318.1007,0.00016108,2.276e-05,0.0,0 STARLINK-4024,1 52599U 22052B   22279.85379601  .00002276  00000-0  16108-3 0  9998,2 52599  53.2171 129.8440 0001898  42.0130 318.1007 15.08833051 22542,6917.901999999999,95.438,541.08,538.4540000000002,0.0
52599.0,STARLINK-4024,PAYLOAD,2022-10-06 23:40:14,15.08832222,0.000188,53.2174,129.2492,37.9438,322.1686,0.0001193,1.611e-05,0.0,0 STARLINK-4024,1 52599U 22052B   22279.98627858  .00001611  00000-0  11930-3 0  9992,2 52599  53.2174 129.2492 0001880  37.9438 322.1686 15.08832222 22997,6917.904,95.438,541.07,538.469,0.0
52599.0,STARLINK-4024,PAYLOAD,2022-10-07 20:20:15,15.08839798,0.0001937,53.2176,125.3831,40.4011,319.7125,0.0001118,1.492e-05,0.0,0 STARLINK-4024,1 52599U 22052B   22280.84739603  .00001492  00000-0  11180-3 0  9995,2 52599  53.2176 125.3831 0001937  40.4011 319.7125 15.08839798 23123,6917.880999999999,95.438,541.086,538.406,0.0
52599.0,STARLINK-4024,PAYLOAD,2022-10-07 23:31:01,15.08840996,0.0001934,53.2172,124.7879,41.7198,318.3942,0.00012552,1.7100000000000002e-05,0.0,0 STARLINK-4024,1 52599U 22052B   22280.97987471  .00001710  00000-0  12552-3 0  9994,2 52599  53.2172 124.7879 0001934  41.7198 318.3942 15.08840996 23147,6917.877,95.437,541.08,538.404,0.0
52599.0,STARLINK-4024,PAYLOAD,2022-10-08 20:11:03,15.087937900000002,0.0001710999999999,53.2174,120.9204,48.6294,311.4845,0.00039392,5.979e-05,0.0,0 STARLINK-4024,1 52599U 22052B   22281.84101179  .00005979  00000-0  39392-3 0  9996,2 52599  53.2174 120.9204 0001711  48.6294 311.4845 15.08793790 23274,6918.022,95.44,541.07,538.703,0.0
52599.0,STARLINK-4024,PAYLOAD,2022-10-09 00:57:12,15.08817363,0.0001761,53.2177,120.0302,40.3702,319.742,0.00018552,2.664e-05,0.0,0 STARLINK-4024,1 52599U 22052B   22282.03972833  .00002664  00000-0  18552-3 0  9994,2 52599  53.2177 120.0302 0001761  40.3702 319.7420 15.08817363 22873,6917.95,95.439,541.033,538.596,0.0
52599.0,STARLINK-4024,PAYLOAD,2022-10-09 20:01:48,15.08849184,0.0001935,53.2175,116.4613,42.1939,317.9202,8.4811e-05,1.062e-05,0.0,0 STARLINK-4024,1 52599U 22052B   22282.83459182  .00001062  00000-0  84811-4 0  9992,2 52599  53.2175 116.4613 0001935  42.1939 317.9202 15.08849184 22997,6917.852,95.437,541.056,538.379,0.0
52599.0,STARLINK-4024,PAYLOAD,2022-10-10 00:47:59,15.08837236,0.0002028,53.2174,115.5689,44.3901,315.7253,-1.7469e-05,-5.66e-06,0.0,0 STARLINK-4024,1 52599U 22052B   22283.03332273 -.00000566  00000-0 -17469-4 0  9991,2 52599  53.2174 115.5689 0002028  44.3901 315.7253 15.08837236 23028,6917.889,95.438,541.1569999999998,538.351,0.0
52599.0,STARLINK-4024,PAYLOAD,2022-10-10 11:55:40,15.08837043,0.0001899,53.2177,113.487,44.5683,315.5461,4.8009e-05,4.76e-06,0.0,0 STARLINK-4024,1 52599U 22052B   22283.49700104  .00000476  00000-0  48009-4 0  9995,2 52599  53.2177 113.4870 0001899  44.5683 315.5461 15.08837043 23524,6917.889,95.438,541.068,538.441,0.0
52599.0,STARLINK-4024,PAYLOAD,2022-10-10 21:28:00,15.08828821,0.0001979,53.2176,111.7032,39.9991,320.1146,4.688600000000001e-05,4.58e-06,0.0,0 STARLINK-4024,1 52599U 22052B   22283.89444799  .00000458  00000-0  46886-4 0  9995,2 52599  53.2176 111.7032 0001979  39.9991 320.1146 15.08828821 23158,6917.915,95.438,541.149,538.411,0.0
52599.0,STARLINK-4024,PAYLOAD,2022-10-11 14:57:11,15.08874056,0.0001821999999999,53.2179,108.4309,22.0067,338.1003,0.00015713,2.216e-05,0.0,0 STARLINK-4024,1 52599U 22052B   22284.62304807  .00002216  00000-0  15713-3 0  9990,2 52599  53.2179 108.4309 0001822  22.0067 338.1003 15.08874056 23696,6917.776,95.435,540.9019999999998,538.381,0.0
52599.0,STARLINK-4024,PAYLOAD,2022-10-12 11:37:15,15.08824785,0.0002104,53.2181,104.5659,35.9475,324.1658,-7.9607e-05,-1.554e-05,0.0,0 STARLINK-4024,1 52599U 22052B   22285.48420576 -.00001554  00000-0 -79607-4 0  9996,2 52599  53.2181 104.5659 0002104  35.9475 324.1658 15.08824785 23396,6917.927,95.439,541.247,538.336,0.0
52599.0,STARLINK-4024,PAYLOAD,2022-10-12 21:09:33,15.0883113,0.0002395,53.2177,102.7826,41.2395,318.8778,1.4789e-05,-5.3e-07,0.0,0 STARLINK-4024,1 52599U 22052B   22285.88164129 -.00000053  00000-0  14789-4 0  9991,2 52599  53.2177 102.7826 0002395  41.2395 318.8778 15.08831130 23889,6917.908,95.438,541.429,538.116,0.0
52599.0,STARLINK-4024,PAYLOAD,2022-10-13 05:06:28,15.088655599999996,0.0002086999999999,53.2181,101.2957,26.6827,333.4272,-0.00035075,-5.870000000000001e-05,0.0,0 STARLINK-4024,1 52599U 22052B   22286.21282908 -.00005870  00000-0 -35075-3 0  9998,2 52599  53.2181 101.2957 0002087  26.6827 333.4272 15.08865560 23503,6917.802,95.436,541.111,538.224,0.0
52599.0,STARLINK-4024,PAYLOAD,2022-10-13 11:28:01,15.08827934,0.0002532,53.2181,100.1061,38.6348,321.4825,0.00017477,2.493e-05,0.0,0 STARLINK-4024,1 52599U 22052B   22286.47779412  .00002493  00000-0  17477-3 0  9999,2 52599  53.2181 100.1061 0002532  38.6348 321.4825 15.08827934 23978,6917.917,95.438,541.534,538.031,0.0
52599.0,STARLINK-4024,PAYLOAD,2022-10-13 14:38:47,15.08826722,0.0002514,53.218,99.5114,38.7275,321.3897,0.00015889,2.24e-05,0.0,0 STARLINK-4024,1 52599U 22052B   22286.61027685  .00002240  00000-0  15889-3 0  9998,2 52599  53.2180  99.5114 0002514  38.7275 321.3897 15.08826722 23564,6917.920999999999,95.438,541.525,538.047,0.0
52599.0,STARLINK-4024,PAYLOAD,2022-10-13 21:00:21,15.08820882,0.000248,53.2181,98.322,37.6591,322.4575,9.1796e-05,1.172e-05,0.0,0 STARLINK-4024,1 52599U 22052B   22286.87524534  .00001172  00000-0  91796-4 0  9996,2 52599  53.2181  98.3220 0002480  37.6591 322.4575 15.08820882 24030,6917.939,95.439,541.519,538.0880000000002,0.0
52599.0,STARLINK-4024,PAYLOAD,2022-10-14 00:11:07,15.08821802,0.0002476,53.218,97.7271,37.7287,322.3879,9.4896e-05,1.222e-05,0.0,0 STARLINK-4024,1 52599U 22052B   22287.00772626  .00001222  00000-0  94896-4 0  9999,2 52599  53.2180  97.7271 0002476  37.7287 322.3879 15.08821802 23629,6917.936,95.439,541.514,538.0880000000002,0.0
52599.0,STARLINK-4024,PAYLOAD,2022-10-14 11:18:49,15.08830232,0.0002468,53.2182,95.6457,37.6092,322.5072,0.00014352,1.996e-05,0.0,0 STARLINK-4024,1 52599U 22052B   22287.47140395  .00001996  00000-0  14352-3 0  9998,2 52599  53.2182  95.6457 0002468  37.6092 322.5072 15.08830232 24128,6917.91,95.438,541.4830000000002,538.068,0.0
52599.0,STARLINK-4024,PAYLOAD,2022-10-14 14:29:35,15.08824071,0.0002185,53.2185,95.0507,32.9426,327.1702,0.00032285,4.852e-05,0.0,0 STARLINK-4024,1 52599U 22052B   22287.60388339  .00004852  00000-0  32285-3 0  9994,2 52599  53.2185  95.0507 0002185  32.9426 327.1702 15.08824071 23715,6917.929,95.439,541.306,538.283,0.0
52599.0,STARLINK-4024,PAYLOAD,2022-10-14 17:40:21,15.08837616,0.0002481999999999,53.2181,94.4562,38.5433,321.5736,0.00019457,2.809e-05,0.0,0 STARLINK-4024,1 52599U 22052B   22287.73635946  .00002809  00000-0  19457-3 0  9993,2 52599  53.2181  94.4562 0002482  38.5433 321.5736 15.08837616 23731,6917.888000000001,95.438,541.47,538.036,0.0
